[{"OBJECT_NAME":"STARLINK-3610","OBJECT_ID":"2022-017AW","EPOCH":"2026-03-09T23:13:28.585344","MEAN_MOTION":15.08831625,"ECCENTRICITY":0.00014559,"INCLINATION":53.2194,"RA_OF_ASC_NODE":327.8761,"ARG_OF_PERICENTER":92.7042,"MEAN_ANOMALY":267.4116,"EPHEMERIS_TYPE":0,"CLASSIFICATION_TYPE":"U","NORAD_CAT_ID":51812,"ELEMENT_SET_NO":999,"REV_AT_EPOCH":22412,"BSTAR":1.6780126e-5,"MEAN_MOTION_DOT":-2.1e-7,"MEAN_MOTION_DDOT":0},{"OBJECT_NAME":"CZ-6A DEB","OBJECT_ID":"2024-140TY","EPOCH":"2026-03-09T15:25:48.532512","MEAN_MOTION":14.77098477,"ECCENTRICITY":0.0162256,"INCLINATION":89.1158,"RA_OF_ASC_NODE":288.8548,"ARG_OF_PERICENTER":182.348,"MEAN_ANOMALY":177.7001,"EPHEMERIS_TYPE":0,"CLASSIFICATION_TYPE":"U","NORAD_CAT_ID":61311,"ELEMENT_SET_NO":999,"REV_AT_EPOCH":8223,"BSTAR":0.00066942,"MEAN_MOTION_DOT":5.907e-5,"MEAN_MOTION_DDOT":0}]
